$$SOE
2460721.500000000, A.D. 2025-Feb-15 00:00:00.0000, 2.816263903894464E+08, -1.239473560363564E+08, -6.489884856298333E+07,
2460728.500000000, A.D. 2025-Feb-22 00:00:00.0000, 2.883549529302584E+08, -1.118462802715754E+08, -6.535813935523108E+07,
2460735.500000000, A.D. 2025-Mar-01 00:00:00.0000, 2.946404968130503E+08, -9.957334299802521E+07, -6.571700910234513E+07,
2460742.500000000, A.D. 2025-Mar-08 00:00:00.0000, 3.004808456630799E+08, -8.714992489111030E+07, -6.597657450745954E+07,
2460749.500000000, A.D. 2025-Mar-15 00:00:00.0000, 3.058750774384850E+08, -7.459708491736615E+07, -6.613817794919445E+07,
2460756.500000000, A.D. 2025-Mar-22 00:00:00.0000, 3.108234589959603E+08, -6.193547241144015E+07, -6.620336834899608E+07,
2460763.500000000, A.D. 2025-Mar-29 00:00:00.0000, 3.153273763691411E+08, -4.918525135339641E+07, -6.617388194468196E+07,
2460770.500000000, A.D. 2025-Apr-05 00:00:00.0000, 3.193892625079300E+08, -3.636603382891028E+07, -6.605162303472801E+07,
2460777.500000000, A.D. 2025-Apr-12 00:00:00.0000, 3.230125219050748E+08, -2.349682248973860E+07, -6.583864477131888E+07,
2460784.500000000, A.D. 2025-Apr-19 00:00:00.0000, 3.262014531752231E+08, -1.059596264409413E+07, -6.553713028790861E+07,
2460791.500000000, A.D. 2025-Apr-26 00:00:00.0000, 3.289611709925161E+08, 2.318896217321608E+06, -6.514937439962950E+07,
2460798.500000000, A.D. 2025-May-03 00:00:00.0000, 3.312975285062511E+08, 1.523082999252323E+07, -6.467776604820953E+07,
2460805.500000000, A.D. 2025-May-10 00:00:00.0000, 3.332170411354023E+08, 2.812366124709428E+07, -6.412477162317000E+07,
2460812.500000000, A.D. 2025-May-17 00:00:00.0000, 3.347268125169808E+08, 4.098197282270668E+07, -6.349291926485877E+07,
2460819.500000000, A.D. 2025-May-24 00:00:00.0000, 3.358344633893864E+08, 5.379111442022143E+07, -6.278478423986050E+07,
2460826.500000000, A.D. 2025-May-31 00:00:00.0000, 3.365480643077915E+08, 6.653720318276291E+07, -6.200297544493920E+07,
2460833.500000000, A.D. 2025-Jun-07 00:00:00.0000, 3.368760721505823E+08, 7.920712020051259E+07, -6.115012292338148E+07,
2460840.500000000, A.D. 2025-Jun-14 00:00:00.0000, 3.368272683157414E+08, 9.178850297588654E+07, -6.022886623308522E+07,
2460847.500000000, A.D. 2025-Jun-21 00:00:00.0000, 3.364106999986404E+08, 1.042697312485288E+08, -5.924184403218447E+07,
2460854.500000000, A.D. 2025-Jun-28 00:00:00.0000, 3.356356277621023E+08, 1.166399085763908E+08, -5.819168499532928E+07,
2460861.500000000, A.D. 2025-Jul-05 00:00:00.0000, 3.345114778933475E+08, 1.288888424226760E+08, -5.708099970432608E+07,
2460868.500000000, A.D. 2025-Jul-12 00:00:00.0000, 3.330477983135800E+08, 1.410070224898752E+08, -5.591237342155741E+07,
2460875.500000000, A.D. 2025-Jul-19 00:00:00.0000, 3.312542181388046E+08, 1.529855972209919E+08, -5.468835975637238E+07,
2460882.500000000, A.D. 2025-Jul-26 00:00:00.0000, 3.291404109704102E+08, 1.648163488548205E+08, -5.341147518937628E+07,
2460889.500000000, A.D. 2025-Aug-02 00:00:00.0000, 3.267160618168248E+08, 1.764916674505796E+08, -5.208419439673281E+07,
2460896.500000000, A.D. 2025-Aug-09 00:00:00.0000, 3.239908374812777E+08, 1.880045242153634E+08, -5.070894631451121E+07,
2460903.500000000, A.D. 2025-Aug-16 00:00:00.0000, 3.209743602900087E+08, 1.993484443781792E+08, -4.928811089309457E+07,
2460910.500000000, A.D. 2025-Aug-23 00:00:00.0000, 3.176761852464930E+08, 2.105174798944045E+08, -4.782401650774482E+07,
2460917.500000000, A.D. 2025-Aug-30 00:00:00.0000, 3.141057807330261E+08, 2.215061829201359E+08, -4.631893794045126E+07,
2460924.500000000, A.D. 2025-Sep-06 00:00:00.0000, 3.102725111305200E+08, 2.323095812425450E+08, -4.477509466579951E+07,
2460931.500000000, A.D. 2025-Sep-13 00:00:00.0000, 3.061856194780084E+08, 2.429231533404722E+08, -4.319464943776033E+07,
2460938.500000000, A.D. 2025-Sep-20 00:00:00.0000, 3.018542132479222E+08, 2.533428015569905E+08, -4.157970756342226E+07,
2460945.500000000, A.D. 2025-Sep-27 00:00:00.0000, 2.972872540996792E+08, 2.635648265901700E+08, -3.993231665977173E+07,
2460952.500000000, A.D. 2025-Oct-04 00:00:00.0000, 2.924935494039086E+08, 2.735859039157121E+08, -3.825446662055221E+07,
2460959.500000000, A.D. 2025-Oct-11 00:00:00.0000, 2.874817449846442E+08, 2.834030612553917E+08, -3.654808979611790E+07,
2460966.500000000, A.D. 2025-Oct-18 00:00:00.0000, 2.822603191959201E+08, 2.930136568566456E+08, -3.481506139851977E+07,
2460973.500000000, A.D. 2025-Oct-25 00:00:00.0000, 2.768375783161452E+08, 3.024153586189235E+08, -3.305720011081114E+07,
2460980.500000000, A.D. 2025-Nov-01 00:00:00.0000, 2.712216531543320E+08, 3.116061240940146E+08, -3.127626887309779E+07,
2460987.500000000, A.D. 2025-Nov-08 00:00:00.0000, 2.654204967678261E+08, 3.205841813299969E+08, -2.947397582416971E+07,
2460994.500000000, A.D. 2025-Nov-15 00:00:00.0000, 2.594418833147168E+08, 3.293480104929447E+08, -2.765197539300795E+07,
2461001.500000000, A.D. 2025-Nov-22 00:00:00.0000, 2.532934083294863E+08, 3.378963264728333E+08, -2.581186953788778E+07,
2461008.500000000, A.D. 2025-Nov-29 00:00:00.0000, 2.469824901649253E+08, 3.462280635885068E+08, -2.395520900766522E+07,
2461015.500000000, A.D. 2025-Dec-06 00:00:00.0000, 2.405163702259538E+08, 3.543423622294198E+08, -2.208349441064760E+07,
2461022.500000000, A.D. 2025-Dec-13 00:00:00.0000, 2.339021123407522E+08, 3.622385540390611E+08, -2.019817739143965E+07,
2461029.500000000, A.D. 2025-Dec-20 00:00:00.0000, 2.271466046885475E+08, 3.699161466375946E+08, -1.830066214035738E+07,
2461036.500000000, A.D. 2025-Dec-27 00:00:00.0000, 2.202565631431833E+08, 3.773748104421061E+08, -1.639230691409829E+07,
2461043.500000000, A.D. 2026-Jan-03 00:00:00.0000, 2.132385345105689E+08, 3.846143669343623E+08, -1.447442547398749E+07,
2461050.500000000, A.D. 2026-Jan-10 00:00:00.0000, 2.060988997138239E+08, 3.916347776631514E+08, -1.254828849853167E+07,
2461057.500000000, A.D. 2026-Jan-17 00:00:00.0000, 1.988438771089038E+08, 3.984361338554635E+08, -1.061512499150619E+07,
2461064.500000000, A.D. 2026-Jan-24 00:00:00.0000, 1.914795259641425E+08, 4.050186466250608E+08, -8.676123684344798E+06,
2461071.500000000, A.D. 2026-Jan-31 00:00:00.0000, 1.840117500874453E+08, 4.113826377373768E+08, -6.732434430032492E+06,
2461078.500000000, A.D. 2026-Feb-07 00:00:00.0000, 1.764463016273286E+08, 4.175285308405764E+08, -4.785169594136506E+06,
2461085.500000000, A.D. 2026-Feb-14 00:00:00.0000, 1.687887852696538E+08, 4.234568431158760E+08, -2.835405463528305E+06,
2461092.500000000, A.D. 2026-Feb-21 00:00:00.0000, 1.610446631906252E+08, 4.291681778941134E+08, -8.841836580101252E+05,
2461099.500000000, A.D. 2026-Feb-28 00:00:00.0000, 1.532192596584851E+08, 4.346632193619876E+08, 1.067487651389062E+06,
2461106.500000000, A.D. 2026-Mar-07 00:00:00.0000, 1.453177632038530E+08, 4.399427273764612E+08, 3.018632749056339E+06,
2461113.500000000, A.D. 2026-Mar-14 00:00:00.0000, 1.373452291142133E+08, 4.450075300275998E+08, 4.968307163045079E+06,
2461120.500000000, A.D. 2026-Mar-21 00:00:00.0000, 1.293065840213938E+08, 4.498585168242465E+08, 6.915596309371591E+06,
2461127.500000000, A.D. 2026-Mar-28 00:00:00.0000, 1.212066305610605E+08, 4.544966335050798E+08, 8.859614261528790E+06,
2461134.500000000, A.D. 2026-Apr-04 00:00:00.0000, 1.130500514893906E+08, 4.589228774835776E+08, 1.079950262235957E+07,
2461141.500000000, A.D. 2026-Apr-11 00:00:00.0000, 1.048414135213208E+08, 4.631382935425364E+08, 1.273442944416082E+07,
2461148.500000000, A.D. 2026-Apr-18 00:00:00.0000, 9.658517104137018E+07, 4.671439697479749E+08, 1.466358818199706E+07,
2461155.500000000, A.D. 2026-Apr-25 00:00:00.0000, 8.828566972525576E+07, 4.709410335751166E+08, 1.658619667716804E+07,
2461162.500000000, A.D. 2026-May-02 00:00:00.0000, 7.994715009621403E+07, 4.745306481971726E+08, 1.850149616543540E+07,
2461169.500000000, A.D. 2026-May-09 00:00:00.0000, 7.157375113534072E+07, 4.779140088536333E+08, 2.040875029295182E+07,
2461176.500000000, A.D. 2026-May-16 00:00:00.0000, 6.316951432047989E+07, 4.810923394213636E+08, 2.230724411623853E+07,
2461183.500000000, A.D. 2026-May-23 00:00:00.0000, 5.473838814402355E+07, 4.840668901971056E+08, 2.419628316455990E+07,
2461190.500000000, A.D. 2026-May-30 00:00:00.0000, 4.628423103149109E+07, 4.868389371963569E+08, 2.607519278068966E+07,
2461197.500000000, A.D. 2026-Jun-06 00:00:00.0000, 3.781081234287742E+07, 4.894097796783298E+08, 2.794331750073388E+07,
2461204.500000000, A.D. 2026-Jun-13 00:00:00.0000, 2.932181512054758E+07, 4.917807360825490E+08, 2.980002015223795E+07,
2461211.500000000, A.D. 2026-Jun-20 00:00:00.0000, 2.082084008294427E+07, 4.939531412924454E+08, 3.164468095463443E+07,
2461218.500000000, A.D. 2026-Jun-27 00:00:00.0000, 1.231140916667031E+07, 4.959283448737243E+08, 3.347669674880290E+07,
2461225.500000000, A.D. 2026-Jul-04 00:00:00.0000, 3.796968617082267E+06, 4.977077095007567E+08, 3.529548029122180E+07,
2461232.500000000, A.D. 2026-Jul-11 00:00:00.0000, -4.719108118254334E+06, 4.992926094286304E+08, 3.710045957747436E+07,
2461239.500000000, A.D. 2026-Jul-18 00:00:00.0000, -1.323351759969883E+07, 5.006844290271017E+08, 3.889107718754989E+07,
2461246.500000000, A.D. 2026-Jul-25 00:00:00.0000, -2.174302368367944E+07, 5.018845613703538E+08, 4.066678964979774E+07,
2461253.500000000, A.D. 2026-Aug-01 00:00:00.0000, -3.024445483942024E+07, 5.028944068262076E+08, 4.242706681411031E+07,
2461260.500000000, A.D. 2026-Aug-08 00:00:00.0000, -3.873470127797383E+07, 5.037153716012623E+08, 4.417139121067965E+07,
2461267.500000000, A.D. 2026-Aug-15 00:00:00.0000, -4.721071147717097E+07, 5.043488666855531E+08, 4.589925739215532E+07,
2461274.500000000, A.D. 2026-Aug-22 00:00:00.0000, -5.566948886183198E+07, 5.047963084124089E+08, 4.761017142798784E+07,
2461281.500000000, A.D. 2026-Aug-29 00:00:00.0000, -6.410809092555107E+07, 5.050591192546857E+08, 4.930365064779118E+07,
2461288.500000000, A.D. 2026-Sep-05 00:00:00.0000, -7.252362865865456E+07, 5.051387259815798E+08, 5.097922320266989E+07,
$$EOE